[{"OBJECT_NAME":"INNOSAT 3 (RS92S0)","OBJECT_ID":"2025-155U","EPOCH":"2026-03-09T22:04:35.098752","MEAN_MOTION":15.36713341,"ECCENTRICITY":0.00065738,"INCLINATION":97.4426,"RA_OF_ASC_NODE":38.6151,"ARG_OF_PERICENTER":146.647,"MEAN_ANOMALY":213.5189,"EPHEMERIS_TYPE":0,"CLASSIFICATION_TYPE":"U","NORAD_CAT_ID":64894,"ELEMENT_SET_NO":999,"REV_AT_EPOCH":6568,"BSTAR":0.0011717269,"MEAN_MOTION_DOT":0.00042146,"MEAN_MOTION_DDOT":0},{"OBJECT_NAME":"STARLINK-36737","OBJECT_ID":"2026-026V","EPOCH":"2026-03-09T22:00:01.999584","MEAN_MOTION":15.4917276,"ECCENTRICITY":0.00017552,"INCLINATION":97.284,"RA_OF_ASC_NODE":123.5348,"ARG_OF_PERICENTER":84.3492,"MEAN_ANOMALY":200.632,"EPHEMERIS_TYPE":0,"CLASSIFICATION_TYPE":"U","NORAD_CAT_ID":67740,"ELEMENT_SET_NO":999,"REV_AT_EPOCH":535,"BSTAR":-0.038918672,"MEAN_MOTION_DOT":-0.01901921,"MEAN_MOTION_DDOT":0}]
